{"type":"FeatureCollection","features":[{"type":"Feature","properties":{},"geometry":{"coordinates":[[[-122.26738235250102,37.83046066349179],[-122.27175196470155,37.81481000041141],[-122.27921720198252,37.806929497606134],[-122.28420281116504,37.797844631843404],[-122.26800689837262,37.79099513471441],[-122.24435444457427,37.78420344657671],[-122.24093613329175,37.77512899904784],[-122.2353046775763,37.771820760898734],[-122.22698081819755,37.78126570675636],[-122.25743783283383,37.793277326643064],[-122.2628359727025,37.80006579849656],[-122.26018143991064,37.804495891918805],[-122.2630058622114,37.8075471119204],[-122.26052976403022,37.81362668564701],[-122.25272301171178,37.81929133019899],[-122.25462983429392,37.827909410197776],[-122.26738235250102,37.83046066349179]]],"type":"Polygon"}}]}